OBJECT_NAME,OBJECT_ID,EPOCH,MEAN_MOTION,ECCENTRICITY,INCLINATION,RA_OF_ASC_NODE,ARG_OF_PERICENTER,MEAN_ANOMALY,EPHEMERIS_TYPE,CLASSIFICATION_TYPE,NORAD_CAT_ID,ELEMENT_SET_NO,REV_AT_EPOCH,BSTAR,MEAN_MOTION_DOT,MEAN_MOTION_DDOT
COSMOS 2251 DEB,1993-036BAD,2026-02-12T13:05:19.375296,14.27947772,.0095242,74.0059,356.3216,132.6405,228.2823,0,U,36430,999,65439,.34418E-3,.87E-5,0
COSMOS 2251 DEB,1993-036BAL,2026-02-27T20:14:18.970368,14.72362202,.00207754,73.9386,243.2715,92.2001,268.1550,0,U,36437,999,67185,.14151034E-2,.8967E-4,0
COSMOS 2251 DEB,1993-036BAN,2026-02-27T06:39:32.219136,13.48096111,.0421725,73.9741,274.5364,231.5568,124.6984,0,U,36439,999,59644,.14162E-2,.1487E-4,0
COSMOS 2251 DEB,1993-036BAQ,2026-03-01T00:46:16.470912,15.08411359,.01085388,73.8344,186.7169,269.8943,88.9810,0,U,36441,999,88145,.62226936E-3,.11076E-3,0
COSMOS 2251 DEB,1993-036BBA,2026-02-12T20:10:39.973152,14.19034671,.01842184,73.9505,223.7258,33.7649,327.5066,0,U,36451,999,85106,.59513071E-3,.1446E-4,0
COSMOS 2251 DEB,1993-036BBC,2026-02-26T07:22:32.957760,14.53305292,.0072376,73.9265,8.8202,255.6835,257.5210,0,U,36453,999,85565,.88527E-3,.3777E-4,0
COSMOS 2251 DEB,1993-036BBJ,2026-02-26T03:21:02.988288,14.26981616,.01151542,74.0464,223.5036,301.5673,57.4272,0,U,36459,999,8957,.12579512E-2,.3257E-4,0
COSMOS 2251 DEB,1993-036BBV,2026-02-27T18:16:57.594144,15.17732907,.00280345,73.8349,92.9986,278.5786,81.2232,0,U,36470,999,67258,.34538195E-2,.71068E-3,0
COSMOS 2251 DEB,1993-036BCN,2026-02-16T14:27:48.280896,14.30929428,.0082039,74.0163,25.1656,57.9736,302.9350,0,U,36528,999,65369,.53556E-3,.1435E-4,0
COSMOS 2251 DEB,1993-036BDA,2026-03-01T07:49:46.259040,14.59473726,.0011116,74.0298,30.7288,84.7633,275.4801,0,U,36540,999,87156,.14386E-2,.6808E-4,0
COSMOS 2251 DEB,1993-036BDL,2026-02-25T08:25:42.066912,14.27498925,.00747671,74.0430,57.7400,90.6602,270.3114,0,U,36550,999,85660,.51319073E-3,.1274E-4,0
COSMOS 2251 DEB,1993-036BDT,2026-02-28T11:52:02.474976,14.81804920,.00198466,73.9792,332.5145,114.0628,246.2628,0,U,36557,999,35047,.21667631E-2,.17181E-3,0
COSMOS 2251 DEB,1993-036BDU,2026-02-28T05:35:48.009984,14.56013676,.0010121,74.0449,7.7442,76.7570,283.4722,0,U,36558,999,86396,.8733E-3,.382E-4,0
COSMOS 2251 DEB,1993-036BDV,2026-02-27T12:00:59.847552,13.96461826,.02599304,74.1254,238.4606,253.3103,103.9354,0,U,36559,999,82165,.40640243E-2,.7445E-4,0
COSMOS 2251 DEB,1993-036BEC,2026-02-24T07:49:25.717440,14.61375128,.00118083,74.0235,33.8536,84.7666,275.4847,0,U,36614,999,66687,.10714009E-2,.5278E-4,0
COSMOS 2251 DEB,1993-036BEL,2026-02-23T12:43:37.182144,14.76968215,.0065484,74.0161,2.6562,120.9498,239.8134,0,U,36622,999,67824,.62497E-3,.4528E-4,0
COSMOS 2251 DEB,1993-036BEW,2026-02-22T14:36:44.922528,14.43608641,.00349375,74.0025,158.5593,253.8426,105.8884,0,U,36632,999,66252,.78679809E-3,.2661E-4,0
COSMOS 2251 DEB,1993-036BFE,2026-02-27T13:07:30.176256,15.02350547,.00926935,74.0304,4.8195,64.0081,297.0617,0,U,37084,999,67420,.5736084E-3,.8296E-4,0
COSMOS 2251 DEB,1993-036BFK,2026-02-28T05:50:28.190976,14.54766240,.0128985,74.0383,359.2326,80.5352,281.0362,0,U,37089,999,67236,.23406E-2,.11201E-3,0
COSMOS 2251 DEB,1993-036BFQ,2026-02-18T05:23:11.166720,14.38322796,.0084952,74.1128,357.4013,304.6936,54.6234,0,U,37094,999,85476,.12532E-2,.3954E-4,0
COSMOS 2251 DEB,1993-036BFX,2026-02-21T09:39:26.831232,14.66143491,.00417437,74.0334,317.7616,24.5476,335.7668,0,U,37101,999,66707,.10999853E-2,.6099E-4,0
COSMOS 2251 DEB,1993-036BGQ,2026-02-03T04:55:29.226432,14.79989849,.0002697,74.0172,340.0735,344.2912,15.8180,0,U,37118,999,66327,.2908E-2,.22037E-3,0
COSMOS 2251 DEB,1993-036BHE,2026-02-01T23:43:15.794400,14.78795450,.00433974,74.0037,133.1709,278.8272,80.7990,0,U,37132,999,63173,.1092546E-2,.8135E-4,0
COSMOS 2251 DEB,1993-036BHJ,2026-02-28T19:58:35.854752,13.60569082,.03952595,73.9345,208.3641,206.1945,151.8695,0,U,37270,999,78131,.48538579E-2,.6121E-4,0
