COSMOS 2251 DEB         
1 36430U 93036BAD 26043.54536314  .00000870  00000+0  34418-3 0  9990
2 36430  74.0059 356.3216 0095242 132.6405 228.2823 14.27947772654396
COSMOS 2251 DEB         
1 36437U 93036BAL 26058.84327512  .00008967  00000+0  14151-2 0  9990
2 36437  73.9386 243.2715 0020775  92.2001 268.1550 14.72362202671853
COSMOS 2251 DEB         
1 36439U 93036BAN 26058.27745624  .00001487  00000+0  14162-2 0  9999
2 36439  73.9741 274.5364 0421725 231.5568 124.6984 13.48096111596446
COSMOS 2251 DEB         
1 36441U 93036BAQ 26060.03213508  .00011076  00000+0  62227-3 0  9991
2 36441  73.8344 186.7169 0108538 269.8943  88.9810 15.08411359881450
COSMOS 2251 DEB         
1 36451U 93036BBA 26043.84074043  .00001446  00000+0  59513-3 0  9995
2 36451  73.9505 223.7258 0184218  33.7649 327.5066 14.19034671851060
COSMOS 2251 DEB         
1 36453U 93036BBC 26057.30732590  .00003777  00000+0  88527-3 0  9997
2 36453  73.9265   8.8202 0072376 255.6835 257.5210 14.53305292855659
COSMOS 2251 DEB         
1 36459U 93036BBJ 26057.13961792  .00003257  00000+0  12580-2 0  9990
2 36459  74.0464 223.5036 0115154 301.5673  57.4272 14.26981616 89577
COSMOS 2251 DEB         
1 36470U 93036BBV 26058.76177771  .00071068  00000+0  34538-2 0  9991
2 36470  73.8349  92.9986 0028034 278.5786  81.2232 15.17732907672587
COSMOS 2251 DEB         
1 36528U 93036BCN 26047.60264214  .00001435  00000+0  53556-3 0  9998
2 36528  74.0163  25.1656 0082039  57.9736 302.9350 14.30929428653694
COSMOS 2251 DEB         
1 36540U 93036BDA 26060.32622985  .00006808  00000+0  14386-2 0  9995
2 36540  74.0298  30.7288 0011116  84.7633 275.4801 14.59473726871561
COSMOS 2251 DEB         
1 36550U 93036BDL 26056.35118133  .00001274  00000+0  51319-3 0  9999
2 36550  74.0430  57.7400 0074767  90.6602 270.3114 14.27498925856600
COSMOS 2251 DEB         
1 36557U 93036BDT 26059.49447309  .00017181  00000+0  21668-2 0  9991
2 36557  73.9792 332.5145 0019846 114.0628 246.2628 14.81804920350474
COSMOS 2251 DEB         
1 36558U 93036BDU 26059.23319456  .00003820  00000+0  87330-3 0  9999
2 36558  74.0449   7.7442 0010121  76.7570 283.4722 14.56013676863967
COSMOS 2251 DEB         
1 36559U 93036BDV 26058.50069268  .00007445  00000+0  40640-2 0  9991
2 36559  74.1254 238.4606 0259930 253.3103 103.9354 13.96461826821650
COSMOS 2251 DEB         
1 36614U 93036BEC 26055.32599210  .00005278  00000+0  10714-2 0  9996
2 36614  74.0235  33.8536 0011808  84.7666 275.4847 14.61375128666874
COSMOS 2251 DEB         
1 36622U 93036BEL 26054.53029146  .00004528  00000+0  62497-3 0  9996
2 36622  74.0161   2.6562 0065484 120.9498 239.8134 14.76968215678247
COSMOS 2251 DEB         
1 36632U 93036BEW 26053.60885327  .00002661  00000+0  78680-3 0  9992
2 36632  74.0025 158.5593 0034937 253.8426 105.8884 14.43608641662524
COSMOS 2251 DEB         
1 37084U 93036BFE 26058.54687704  .00008296  00000+0  57361-3 0  9994
2 37084  74.0304   4.8195 0092693  64.0081 297.0617 15.02350547674200
COSMOS 2251 DEB         
1 37089U 93036BFK 26059.24338184  .00011201  00000+0  23406-2 0  9994
2 37089  74.0383 359.2326 0128985  80.5352 281.0362 14.54766240672365
COSMOS 2251 DEB         
1 37094U 93036BFQ 26049.22443480  .00003954  00000+0  12532-2 0  9997
2 37094  74.1128 357.4013 0084952 304.6936  54.6234 14.38322796854769
COSMOS 2251 DEB         
1 37101U 93036BFX 26052.40239388  .00006099  00000+0  11000-2 0  9992
2 37101  74.0334 317.7616 0041743  24.5476 335.7668 14.66143491667076
COSMOS 2251 DEB         
1 37118U 93036BGQ 26034.20519938  .00022037  00000+0  29080-2 0  9997
2 37118  74.0172 340.0735 0002697 344.2912  15.8180 14.79989849663279
COSMOS 2251 DEB         
1 37132U 93036BHE 26032.98837725  .00008135  00000+0  10925-2 0  9994
2 37132  74.0037 133.1709 0043397 278.8272  80.7990 14.78795450631738
COSMOS 2251 DEB         
1 37270U 93036BHJ 26059.83235943  .00006121  00000+0  48539-2 0  9999
2 37270  73.9345 208.3641 0395259 206.1945 151.8695 13.60569082781311
